{"type": "FeatureCollection", "features": [ {"type": "Feature", "properties": {"norad_id": 32384, "name": "GPS BIIRM-5 (PRN 29)", "group": "gps-ops", "lat": 50.920660487523065, "lon": 42.55150084027295, "alt_km": 20123.500126094503, "timestamp": "2025-12-18T04:58:34.835098+00:00", "meta": {"OBJECT_NAME": "GPS BIIRM-5 (PRN 29)", "OBJECT_ID": "2007-062A", "EPOCH": "2025-12-16T19:22:21.732672", "MEAN_MOTION": 2.00577594, "ECCENTRICITY": 0.0032249, "INCLINATION": 55.1786, "RA_OF_ASC_NODE": 281.4828, "ARG_OF_PERICENTER": 162.2986, "MEAN_ANOMALY": 15.9546, "EPHEMERIS_TYPE": 0, "CLASSIFICATION_TYPE": "U", "NORAD_CAT_ID": 32384, "ELEMENT_SET_NO": 999, "REV_AT_EPOCH": 13185, "BSTAR": 0, "MEAN_MOTION_DOT": -6.1e-07, "MEAN_MOTION_DDOT": 0}, "tle": {"line1": "1 32384U 07062A   25350.80719598 -.00000061  00000+0  00000+0 0  9993", "line2": "2 32384  55.1786 281.4828 0032249 162.2986  15.9546  2.00577594131858"}}, "geometry": {"type": "Point", "coordinates": [42.55150084027295, 50.920660487523065]}}, {"type": "Feature", "properties": {"norad_id": 32711, "name": "GPS BIIRM-6 (PRN 07)", "group": "gps-ops", "lat": 27.554491657720675, "lon": 179.0401482578965, "alt_km": 20640.03501293709, "timestamp": "2025-12-18T04:58:34.835109+00:00", "meta": {"OBJECT_NAME": "GPS BIIRM-6 (PRN 07)", "OBJECT_ID": "2008-012A", "EPOCH": "2025-12-17T15:49:41.765088", "MEAN_MOTION": 2.00565872, "ECCENTRICITY": 0.02026437, "INCLINATION": 54.4776, "RA_OF_ASC_NODE": 157.1765, "ARG_OF_PERICENTER": 245.005, "MEAN_ANOMALY": 112.8804, "EPHEMERIS_TYPE": 0, "CLASSIFICATION_TYPE": "U", "NORAD_CAT_ID": 32711, "ELEMENT_SET_NO": 999, "REV_AT_EPOCH": 13011, "BSTAR": 0, "MEAN_MOTION_DOT": 7.7e-07, "MEAN_MOTION_DDOT": 0}, "tle": {"line1": "1 32711U 08012A   25351.65951117  .00000077  00000+0  00000+0 0  9998", "line2": "2 32711  54.4776 157.1765 0202643 245.0050 112.8804  2.00565872130119"}}, "geometry": {"type": "Point", "coordinates": [179.0401482578965, 27.554491657720675]}}, {"type": "Feature", "properties": {"norad_id": 35752, "name": "GPS BIIRM-8 (PRN 05)", "group": "gps-ops", "lat": 41.56105747001547, "lon": 71.16227007838673, "alt_km": 20056.214380098605, "timestamp": "2025-12-18T04:58:34.835120+00:00", "meta": {"OBJECT_NAME": "GPS BIIRM-8 (PRN 05)", "OBJECT_ID": "2009-043A", "EPOCH": "2025-12-15T22:20:02.106816", "MEAN_MOTION": 2.00565586, "ECCENTRICITY": 0.00517182, "INCLINATION": 56.0932, "RA_OF_ASC_NODE": 34.6571, "ARG_OF_PERICENTER": 81.8462, "MEAN_ANOMALY": 127.6063, "EPHEMERIS_TYPE": 0, "CLASSIFICATION_TYPE": "U", "NORAD_CAT_ID": 35752, "ELEMENT_SET_NO": 999, "REV_AT_EPOCH": 11968, "BSTAR": 0, "MEAN_MOTION_DOT": -8.6e-07, "MEAN_MOTION_DDOT": 0}, "tle": {"line1": "1 35752U 09043A   25349.93057994 -.00000086  00000+0  00000+0 0  9990", "line2": "2 35752  56.0932  34.6571 0051718  81.8462 127.6063  2.00565586119683"}}, "geometry": {"type": "Point", "coordinates": [71.16227007838673, 41.56105747001547]}}, {"type": "Feature", "properties": {"norad_id": 36585, "name": "GPS BIIF-1  (PRN 25)", "group": "gps-ops", "lat": 5.732352002187585, "lon": 31.727778522153656, "alt_km": 20281.356424691287, "timestamp": "2025-12-18T04:58:34.835131+00:00", "meta": {"OBJECT_NAME": "GPS BIIF-1  (PRN 25)", "OBJECT_ID": "2010-022A", "EPOCH": "2025-12-16T18:11:46.819392", "MEAN_MOTION": 2.00553492, "ECCENTRICITY": 0.01262844, "INCLINATION": 54.2994, "RA_OF_ASC_NODE": 215.9118, "ARG_OF_PERICENTER": 65.1252, "MEAN_ANOMALY": 140.1445, "EPHEMERIS_TYPE": 0, "CLASSIFICATION_TYPE": "U", "NORAD_CAT_ID": 36585, "ELEMENT_SET_NO": 999, "REV_AT_EPOCH": 11393, "BSTAR": 0, "MEAN_MOTION_DOT": 7.7e-07, "MEAN_MOTION_DDOT": 0}, "tle": {"line1": "1 36585U 10022A   25350.75818078  .00000077  00000+0  00000+0 0  9993", "line2": "2 36585  54.2994 215.9118 0126284  65.1252 140.1445  2.00553492113939"}}, "geometry": {"type": "Point", "coordinates": [31.727778522153656, 5.732352002187585]}}, {"type": "Feature", "properties": {"norad_id": 38833, "name": "GPS BIIF-3  (PRN 24)", "group": "gps-ops", "lat": -53.50480394036202, "lon": 58.46294175318418, "alt_km": 20611.93722518154, "timestamp": "2025-12-18T04:58:34.835145+00:00", "meta": {"OBJECT_NAME": "GPS BIIF-3  (PRN 24)", "OBJECT_ID": "2012-053A", "EPOCH": "2025-12-17T20:05:06.382752", "MEAN_MOTION": 2.00565081, "ECCENTRICITY": 0.0176009, "INCLINATION": 53.5589, "RA_OF_ASC_NODE": 151.0299, "ARG_OF_PERICENTER": 64.0689, "MEAN_ANOMALY": 297.7246, "EPHEMERIS_TYPE": 0, "CLASSIFICATION_TYPE": "U", "NORAD_CAT_ID": 38833, "ELEMENT_SET_NO": 999, "REV_AT_EPOCH": 9580, "BSTAR": 0, "MEAN_MOTION_DOT": 6.4e-07, "MEAN_MOTION_DDOT": 0}, "tle": {"line1": "1 38833U 12053A   25351.83687943  .00000064  00000+0  00000+0 0  9998", "line2": "2 38833  53.5589 151.0299 0176009  64.0689 297.7246  2.00565081 95801"}}, "geometry": {"type": "Point", "coordinates": [58.46294175318418, -53.50480394036202]}}, {"type": "Feature", "properties": {"norad_id": 39166, "name": "GPS BIIF-4  (PRN 27)", "group": "gps-ops", "lat": 4.71097468289513, "lon": -80.3204426982109, "alt_km": 19910.774887348794, "timestamp": "2025-12-18T04:58:34.835168+00:00", "meta": {"OBJECT_NAME": "GPS BIIF-4  (PRN 27)", "OBJECT_ID": "2013-023A", "EPOCH": "2025-12-15T04:59:33.811872", "MEAN_MOTION": 2.00564736, "ECCENTRICITY": 0.01378529, "INCLINATION": 54.65, "RA_OF_ASC_NODE": 276.4679, "ARG_OF_PERICENTER": 48.4851, "MEAN_ANOMALY": 312.7012, "EPHEMERIS_TYPE": 0, "CLASSIFICATION_TYPE": "U", "NORAD_CAT_ID": 39166, "ELEMENT_SET_NO": 999, "REV_AT_EPOCH": 9219, "BSTAR": 0, "MEAN_MOTION_DOT": -6.8e-07, "MEAN_MOTION_DDOT": 0}, "tle": {"line1": "1 39166U 13023A   25349.20803023 -.00000068  00000+0  00000+0 0  9998", "line2": "2 39166  54.6500 276.4679 0137852  48.4851 312.7012  2.00564736 92194"}}, "geometry": {"type": "Point", "coordinates": [-80.3204426982109, 4.71097468289513]}}, {"type": "Feature", "properties": {"norad_id": 39533, "name": "GPS BIIF-5  (PRN 30)", "group": "gps-ops", "lat": 8.126635887087982, "lon": 162.7345516795161, "alt_km": 20349.13615675436, "timestamp": "2025-12-18T04:58:34.835184+00:00", "meta": {"OBJECT_NAME": "GPS BIIF-5  (PRN 30)", "OBJECT_ID": "2014-008A", "EPOCH": "2025-12-17T04:42:21.782016", "MEAN_MOTION": 2.00574699, "ECCENTRICITY": 0.00793343, "INCLINATION": 53.632, "RA_OF_ASC_NODE": 156.7429, "ARG_OF_PERICENTER": 226.5757, "MEAN_ANOMALY": 132.7662, "EPHEMERIS_TYPE": 0, "CLASSIFICATION_TYPE": "U", "NORAD_CAT_ID": 39533, "ELEMENT_SET_NO": 999, "REV_AT_EPOCH": 8603, "BSTAR": 0, "MEAN_MOTION_DOT": 7.8e-07, "MEAN_MOTION_DDOT": 0}, "tle": {"line1": "1 39533U 14008A   25351.19608544  .00000078  00000+0  00000+0 0  9992", "line2": "2 39533  53.6320 156.7429 0079334 226.5757 132.7662  2.00574699 86034"}}, "geometry": {"type": "Point", "coordinates": [162.7345516795161, 8.126635887087982]}}, {"type": "Feature", "properties": {"norad_id": 39741, "name": "GPS BIIF-6  (PRN 06)", "group": "gps-ops", "lat": 12.551927530550621, "lon": 150.10094510423068, "alt_km": 20274.875014317062, "timestamp": "2025-12-18T04:58:34.835196+00:00", "meta": {"OBJECT_NAME": "GPS BIIF-6  (PRN 06)", "OBJECT_ID": "2014-026A", "EPOCH": "2025-12-17T11:30:51.107616", "MEAN_MOTION": 2.00561119, "ECCENTRICITY": 0.00393141, "INCLINATION": 56.5818, "RA_OF_ASC_NODE": 338.592, "ARG_OF_PERICENTER": 318.961, "MEAN_ANOMALY": 40.7519, "EPHEMERIS_TYPE": 0, "CLASSIFICATION_TYPE": "U", "NORAD_CAT_ID": 39741, "ELEMENT_SET_NO": 999, "REV_AT_EPOCH": 8489, "BSTAR": 0, "MEAN_MOTION_DOT": -8.5e-07, "MEAN_MOTION_DDOT": 0}, "tle": {"line1": "1 39741U 14026A   25351.47975819 -.00000085  00000+0  00000+0 0  9995", "line2": "2 39741  56.5818 338.5920 0039314 318.9610  40.7519  2.00561119 84897"}}, "geometry": {"type": "Point", "coordinates": [150.10094510423068, 12.551927530550621]}}, {"type": "Feature", "properties": {"norad_id": 40105, "name": "GPS BIIF-7  (PRN 09)", "group": "gps-ops", "lat": 53.29365064499291, "lon": -152.83186710025902, "alt_km": 20092.57053102004, "timestamp": "2025-12-18T04:58:34.835207+00:00", "meta": {"OBJECT_NAME": "GPS BIIF-7  (PRN 09)", "OBJECT_ID": "2014-045A", "EPOCH": "2025-12-16T13:40:35.692320", "MEAN_MOTION": 2.00572829, "ECCENTRICITY": 0.00326078, "INCLINATION": 55.2314, "RA_OF_ASC_NODE": 95.7461, "ARG_OF_PERICENTER": 119.9914, "MEAN_ANOMALY": 240.3146, "EPHEMERIS_TYPE": 0, "CLASSIFICATION_TYPE": "U", "NORAD_CAT_ID": 40105, "ELEMENT_SET_NO": 999, "REV_AT_EPOCH": 8241, "BSTAR": 0, "MEAN_MOTION_DOT": -4.2e-07, "MEAN_MOTION_DDOT": 0}, "tle": {"line1": "1 40105U 14045A   25350.56985755 -.00000042  00000+0  00000+0 0  9994", "line2": "2 40105  55.2314  95.7461 0032607 119.9914 240.3146  2.00572829 82416"}}, "geometry": {"type": "Point", "coordinates": [-152.83186710025902, 53.29365064499291]}}, {"type": "Feature", "properties": {"norad_id": 40294, "name": "GPS BIIF-8  (PRN 03)", "group": "gps-ops", "lat": -9.768643127560292, "lon": -135.59258236900467, "alt_km": 20270.16983869128, "timestamp": "2025-12-18T04:58:34.835218+00:00", "meta": {"OBJECT_NAME": "GPS BIIF-8  (PRN 03)", "OBJECT_ID": "2014-068A", "EPOCH": "2025-12-16T22:42:57.008160", "MEAN_MOTION": 2.00565217, "ECCENTRICITY": 0.00607888, "INCLINATION": 56.8609, "RA_OF_ASC_NODE": 37.9832, "ARG_OF_PERICENTER": 69.0803, "MEAN_ANOMALY": 291.6294, "EPHEMERIS_TYPE": 0, "CLASSIFICATION_TYPE": "U", "NORAD_CAT_ID": 40294, "ELEMENT_SET_NO": 999, "REV_AT_EPOCH": 8155, "BSTAR": 0, "MEAN_MOTION_DOT": -7.8e-07, "MEAN_MOTION_DDOT": 0}, "tle": {"line1": "1 40294U 14068A   25350.94649315 -.00000078  00000+0  00000+0 0  9998", "line2": "2 40294  56.8609  37.9832 0060788  69.0803 291.6294  2.00565217 81552"}}, "geometry": {"type": "Point", "coordinates": [-135.59258236900467, -9.768643127560292]}}]}